NORAD_CAT_ID,OBJECT_NAME,OBJECT_TYPE,EPOCH,MEAN_MOTION,ECCENTRICITY,INCLINATION,RA_OF_ASC_NODE,ARG_OF_PERICENTER,MEAN_ANOMALY,BSTAR,MEAN_MOTION_DOT,MEAN_MOTION_DDOT,TLE_LINE0,TLE_LINE1,TLE_LINE2,SEMIMAJOR_AXIS,PERIOD,APOGEE,PERIGEE,DECAYED
55654.0,STARLINK-5070,PAYLOAD,2024-02-23 06:57:03,14.98348302,0.0003366,70.0006,264.0376,267.6271,92.4503,-4.4909e-05,-6.29e-06,0.0,0 STARLINK-5070,1 55654U 23021AC  24054.28962596 -.00000629  00000-0 -44909-4 0  9994,2 55654  70.0006 264.0376 0003366 267.6271  92.4503 14.98348302 56834,6950.136,96.106,574.341,569.662,0.0
55654.0,STARLINK-5070,PAYLOAD,2024-02-23 14:57:45,14.98319908,0.0004234,69.9963,263.1924,274.9763,85.0912,-0.00010723,-1.372e-05,0.0,0 STARLINK-5070,1 55654U 23021AC  24054.62344480 -.00001372  00000-0 -10723-3 0  9990,2 55654  69.9963 263.1924 0004234 274.9763  85.0912 14.98319908 57185,6950.224,96.108,575.032,569.146,0.0
55654.0,STARLINK-5070,PAYLOAD,2024-02-23 19:46:09,14.98322802,0.0003776,69.9979,262.6909,267.7746,92.2981,-4.4526e-05,-6.24e-06,0.0,0 STARLINK-5070,1 55654U 23021AC  24054.82372186 -.00000624  00000-0 -44526-4 0  9994,2 55654  69.9979 262.6909 0003776 267.7746  92.2981 14.98322802 56913,6950.215,96.107,574.705,569.456,0.0
55654.0,STARLINK-5070,PAYLOAD,2024-02-23 21:22:17,14.98318991,0.0003287,69.9995,262.5244,263.1704,96.9081,-4.8907e-05,-6.76e-06,0.0,0 STARLINK-5070,1 55654U 23021AC  24054.89048503 -.00000676  00000-0 -48907-4 0  9998,2 55654  69.9995 262.5244 0003287 263.1704  96.9081 14.98318991 57224,6950.227,96.108,574.376,569.807,0.0
55654.0,STARLINK-5070,PAYLOAD,2024-02-24 13:23:38,14.98337342,0.0003651,69.9985,260.8397,266.668,93.4062,-0.00029376,-3.597e-05,0.0,0 STARLINK-5070,1 55654U 23021AC  24055.55808063 -.00003597  00000-0 -29376-3 0  9990,2 55654  69.9985 260.8397 0003651 266.6680  93.4062 14.98337342 57322,6950.17,96.107,574.573,569.498,0.0
55654.0,STARLINK-5070,PAYLOAD,2024-02-24 19:48:10,14.98334827,0.0003767,69.998,260.1658,265.6397,94.4332,-0.00027162,-3.333e-05,0.0,0 STARLINK-5070,1 55654U 23021AC  24055.82512033 -.00003333  00000-0 -27162-3 0  9998,2 55654  69.9980 260.1658 0003767 265.6397  94.4332 14.98334827 57069,6950.178,96.107,574.661,569.425,0.0
55654.0,STARLINK-5070,PAYLOAD,2024-02-25 15:01:47,14.9831854,0.0003818,69.9979,258.1455,265.7522,94.3201,7.3402e-05,7.83e-06,0.0,0 STARLINK-5070,1 55654U 23021AC  24056.62624247  .00000783  00000-0  73402-4 0  9991,2 55654  69.9979 258.1455 0003818 265.7522  94.3201 14.98318540 57481,6950.228,96.108,574.747,569.44,0.0
55654.0,STARLINK-5070,PAYLOAD,2024-02-25 19:50:11,14.98319582,0.0003827,69.998,257.6405,265.7411,94.3311,6.9677e-05,7.38e-06,0.0,0 STARLINK-5070,1 55654U 23021AC  24056.82652349  .00000738  00000-0  69677-4 0  9996,2 55654  69.9980 257.6405 0003827 265.7411  94.3311 14.98319582 57219,6950.225,96.108,574.75,569.43,0.0
55654.0,STARLINK-5070,PAYLOAD,2024-02-25 23:02:27,14.98320888,0.0003819,69.998,257.3039,265.7596,94.3126,8.2433e-05,8.9e-06,0.0,0 STARLINK-5070,1 55654U 23021AC  24056.96004334  .00000890  00000-0  82433-4 0  9990,2 55654  69.9980 257.3039 0003819 265.7596  94.3126 14.98320888 57534,6950.221,96.108,574.74,569.432,0.0
55654.0,STARLINK-5070,PAYLOAD,2024-02-26 15:03:48,14.98324851,0.0003816,69.9979,255.6206,265.7655,94.3068,0.00012478,1.396e-05,0.0,0 STARLINK-5070,1 55654U 23021AC  24057.62764309  .00001396  00000-0  12478-3 0  9992,2 55654  69.9979 255.6206 0003816 265.7655  94.3068 14.98324851 57632,6950.209,96.107,574.726,569.422,0.0
55654.0,STARLINK-5070,PAYLOAD,2024-02-26 19:52:12,14.98326565,0.0003827,69.998,255.1156,265.8505,94.2217,0.00011373,1.264e-05,0.0,0 STARLINK-5070,1 55654U 23021AC  24057.82792312  .00001264  00000-0  11373-3 0  9996,2 55654  69.9980 255.1156 0003827 265.8505  94.2217 14.98326565 57369,6950.204,96.107,574.728,569.409,0.0
55654.0,STARLINK-5070,PAYLOAD,2024-02-26 21:28:20,14.98327583,0.0003819,69.998,254.9473,265.926,94.1463,0.0001224,1.368e-05,0.0,0 STARLINK-5070,1 55654U 23021AC  24057.89468241  .00001368  00000-0  12240-3 0  9993,2 55654  69.9980 254.9473 0003819 265.9260  94.1463 14.98327583 57675,6950.2,96.107,574.72,569.411,0.0
55654.0,STARLINK-5070,PAYLOAD,2024-02-27 13:29:41,14.98330712,0.000379,69.998,253.264,265.8434,94.2291,9.5371e-05,1.045e-05,0.0,0 STARLINK-5070,1 55654U 23021AC  24058.56228189  .00001045  00000-0  95371-4 0  9992,2 55654  69.9980 253.2640 0003790 265.8434  94.2291 14.98330712 57772,6950.191,96.107,574.69,569.422,0.0
55654.0,STARLINK-5070,PAYLOAD,2024-02-27 19:54:13,14.98332512,0.0003804,69.998,252.5904,265.4472,94.6253,0.0001008,1.11e-05,0.0,0 STARLINK-5070,1 55654U 23021AC  24058.82932043  .00001110  00000-0  10080-3 0  9998,2 55654  69.9980 252.5904 0003804 265.4472  94.6253 14.98332512 57515,6950.185,96.107,574.694,569.406,0.0
55654.0,STARLINK-5070,PAYLOAD,2024-02-27 21:30:21,14.98332228,0.0003796,69.9981,252.4222,265.5205,94.5521,9.6349e-05,1.057e-05,0.0,0 STARLINK-5070,1 55654U 23021AC  24058.89608067  .00001057  00000-0  96349-4 0  9994,2 55654  69.9981 252.4222 0003796 265.5205  94.5521 14.98332228 57828,6950.186,96.107,574.689,569.413,0.0
55654.0,STARLINK-5070,PAYLOAD,2024-02-28 13:31:41,14.98340397,0.0003872,69.9979,250.7385,266.0267,94.0449,9.5092e-05,1.042e-05,0.0,0 STARLINK-5070,1 55654U 23021AC  24059.56367313  .00001042  00000-0  95092-4 0  9993,2 55654  69.9979 250.7385 0003872 266.0267  94.0449 14.98340397 57926,6950.161,96.106,574.717,569.335,0.0
55654.0,STARLINK-5070,PAYLOAD,2024-02-28 19:56:13,14.9834261,0.000384,69.9981,250.0652,265.9273,94.1447,0.00011628,1.295e-05,0.0,0 STARLINK-5070,1 55654U 23021AC  24059.83070939  .00001295  00000-0  11628-3 0  9990,2 55654  69.9981 250.0652 0003840 265.9273  94.1447 14.98342610 57669,6950.154,96.106,574.688,569.35,0.0
55654.0,STARLINK-5070,PAYLOAD,2024-02-28 21:32:21,14.98343321,0.0003832,69.9981,249.8969,265.8497,94.2224,0.00012309,1.376e-05,0.0,0 STARLINK-5070,1 55654U 23021AC  24059.89746829  .00001376  00000-0  12309-3 0  9991,2 55654  69.9981 249.8969 0003832 265.8497  94.2224 14.98343321 57972,6950.152,96.106,574.68,569.353,0.0
55654.0,STARLINK-5070,PAYLOAD,2024-02-29 05:33:02,14.98334982,0.00035,69.9986,249.0536,268.1508,91.925,2.9824e-05,2.63e-06,0.0,0 STARLINK-5070,1 55654U 23021AC  24060.23127513  .00000263  00000-0  29824-4 0  9999,2 55654  69.9986 249.0536 0003500 268.1508  91.9250 14.98334982 57729,6950.177,96.107,574.475,569.61,0.0
55654.0,STARLINK-5070,PAYLOAD,2024-02-29 15:09:51,14.98323874,0.000366,69.9987,248.0457,266.593,93.4811,-0.00011132,-1.421e-05,0.0,0 STARLINK-5070,1 55654U 23021AC  24060.63184519 -.00001421  00000-0 -11132-3 0  9993,2 55654  69.9987 248.0457 0003660 266.5930  93.4811 14.98323874 58087,6950.212,96.107,574.621,569.533,0.0
55654.0,STARLINK-5070,PAYLOAD,2024-02-29 19:58:15,14.98321895,0.0003657,69.9989,247.5407,265.7662,94.308,-0.00013593,-1.714e-05,0.0,0 STARLINK-5070,1 55654U 23021AC  24060.83212751 -.00001714  00000-0 -13593-3 0  9993,2 55654  69.9989 247.5407 0003657 265.7662  94.3080 14.98321895 57816,6950.218,96.108,574.625,569.541,0.0
55654.0,STARLINK-5070,PAYLOAD,2024-02-29 21:34:23,14.98321657,0.0003651,69.9988,247.3724,265.9735,94.1006,-0.00013639,-1.72e-05,0.0,0 STARLINK-5070,1 55654U 23021AC  24060.89888801 -.00001720  00000-0 -13639-3 0  9992,2 55654  69.9988 247.3724 0003651 265.9735  94.1006 14.98321657 58129,6950.219,96.108,574.621,569.546,0.0
55654.0,STARLINK-5070,PAYLOAD,2024-03-01 13:35:44,14.98328674,0.0003627,69.9992,245.6897,266.1654,93.9091,-0.00012707,-1.609e-05,0.0,0 STARLINK-5070,1 55654U 23021AC  24061.56648549 -.00001609  00000-0 -12707-3 0  9991,2 55654  69.9992 245.6897 0003627 266.1654  93.9091 14.98328674 58220,6950.197,96.107,574.583,569.541,0.0
55654.0,STARLINK-5070,PAYLOAD,2024-03-01 21:36:24,14.98325025,0.0003459,69.9995,244.8478,259.414,100.6629,-0.00010298,-1.321e-05,0.0,0 STARLINK-5070,1 55654U 23021AC  24061.90028764 -.00001321  00000-0 -10298-3 0  9994,2 55654  69.9995 244.8478 0003459 259.4140 100.6629 14.98325025 58272,6950.208,96.107,574.477,569.669,0.0
55654.0,STARLINK-5070,PAYLOAD,2024-03-02 13:37:45,14.98320924,0.0003717,69.9989,243.1638,267.3246,92.7488,0.00011494,1.278e-05,0.0,0 STARLINK-5070,1 55654U 23021AC  24062.56788729  .00001278  00000-0  11494-3 0  9999,2 55654  69.9989 243.1638 0003717 267.3246  92.7488 14.98320924 58375,6950.221,96.108,574.669,569.503,0.0
55654.0,STARLINK-5070,PAYLOAD,2024-03-02 20:02:17,14.983225,0.0003703,69.9989,242.4904,266.9624,93.1111,0.00012529,1.402e-05,0.0,0 STARLINK-5070,1 55654U 23021AC  24062.83492782  .00001402  00000-0  12529-3 0  9999,2 55654  69.9989 242.4904 0003703 266.9624  93.1111 14.98322500 58115,6950.216,96.107,574.655,569.507,0.0
55654.0,STARLINK-5070,PAYLOAD,2024-03-02 21:38:25,14.98322332,0.000371,69.9989,242.322,267.0474,93.026,0.00012073,1.347e-05,0.0,0 STARLINK-5070,1 55654U 23021AC  24062.90168843  .00001347  00000-0  12073-3 0  9997,2 55654  69.9989 242.3220 0003710 267.0474  93.0260 14.98322332 58429,6950.217,96.107,574.66,569.503,0.0
55654.0,STARLINK-5070,PAYLOAD,2024-03-03 15:15:54,14.98329894,0.0003805,69.9986,240.4706,268.2126,91.8597,0.00012349,1.381e-05,0.0,0 STARLINK-5070,1 55654U 23021AC  24063.63604619  .00001381  00000-0  12349-3 0  9998,2 55654  69.9986 240.4706 0003805 268.2126  91.8597 14.98329894 58537,6950.193,96.107,574.703,569.414,0.0
55654.0,STARLINK-5070,PAYLOAD,2024-03-03 21:40:26,14.98334628,0.0003767,69.9985,239.797,267.4945,92.5783,0.00017677,2.017e-05,0.0,0 STARLINK-5070,1 55654U 23021AC  24063.90308310  .00002017  00000-0  17677-3 0  9993,2 55654  69.9985 239.7970 0003767 267.4945  92.5783 14.98334628 58577,6950.179,96.107,574.662,569.425,0.0
55654.0,STARLINK-5070,PAYLOAD,2024-03-04 13:41:46,14.98342486,0.0003794,69.9984,238.1138,267.6056,92.4668,0.00017354,1.979e-05,0.0,0 STARLINK-5070,1 55654U 23021AC  24064.57067444  .00001979  00000-0  17354-3 0  9995,2 55654  69.9984 238.1138 0003794 267.6056  92.4668 14.98342486 58673,6950.154,96.106,574.656,569.382,0.0
